NORAD_CAT_ID,OBJECT_NAME,OBJECT_TYPE,EPOCH,MEAN_MOTION,ECCENTRICITY,INCLINATION,RA_OF_ASC_NODE,ARG_OF_PERICENTER,MEAN_ANOMALY,BSTAR,MEAN_MOTION_DOT,MEAN_MOTION_DDOT,TLE_LINE0,TLE_LINE1,TLE_LINE2,SEMIMAJOR_AXIS,PERIOD,APOGEE,PERIGEE,DECAYED
51722.0,STARLINK-3535,PAYLOAD,2024-08-14 03:13:49,15.08821615,0.0001243,53.2143,19.4247,81.1866,278.9267,-0.00024881,-4.243e-05,0.0,0 STARLINK-3535,1 51722U 22016J   24227.13460590 -.00004243  00000-0 -24881-3 0  9994,2 51722  53.2143  19.4247 0001243  81.1866 278.9267 15.08821615138059,6917.937,95.439,540.661,538.942,0.0
51722.0,STARLINK-3535,PAYLOAD,2024-08-14 14:21:31,15.08836012,0.0001385,53.2183,17.3426,80.4375,279.6773,0.00040656,6.188e-05,0.0,0 STARLINK-3535,1 51722U 22016J   24227.59828052  .00006188  00000-0  40656-3 0  9991,2 51722  53.2183  17.3426 0001385  80.4375 279.6773 15.08836012137059,6917.893,95.438,540.716,538.799,0.0
51722.0,STARLINK-3535,PAYLOAD,2024-08-14 17:32:17,15.08840641,0.0001299,53.2183,16.7477,75.0736,285.04,0.00039594,6.019e-05,0.0,0 STARLINK-3535,1 51722U 22016J   24227.73075836  .00006019  00000-0  39594-3 0  9993,2 51722  53.2183  16.7477 0001299  75.0736 285.0400 15.08840641138145,6917.878,95.438,540.642,538.845,0.0
51722.0,STARLINK-3535,PAYLOAD,2024-08-15 15:47:41,15.08839824,0.0001535,53.2176,12.5835,57.8346,302.2795,0.00051126,7.858e-05,0.0,0 STARLINK-3535,1 51722U 22016J   24228.65812081  .00007858  00000-0  51126-3 0  9993,2 51722  53.2176  12.5835 0001535  57.8346 302.2795 15.08839824138282,6917.881,95.438,540.808,538.684,0.0
51722.0,STARLINK-3535,PAYLOAD,2024-08-16 02:55:23,15.08849204,0.0001135,53.2164,10.5021,74.2008,285.911,0.00036159,5.473e-05,0.0,0 STARLINK-3535,1 51722U 22016J   24229.12179419  .00005473  00000-0  36159-3 0  9997,2 51722  53.2164  10.5021 0001135  74.2008 285.9110 15.08849204137288,6917.852,95.437,540.502,538.932,0.0
51722.0,STARLINK-3535,PAYLOAD,2024-08-17 09:07:42,15.08838263,0.0001303,53.2168,4.8517,82.0205,278.0935,-3.8981e-05,-9.08e-06,0.0,0 STARLINK-3535,1 51722U 22016J   24230.38035675 -.00000908  00000-0 -38981-4 0  9998,2 51722  53.2168   4.8517 0001303  82.0205 278.0935 15.08838263138542,6917.886,95.438,540.652,538.849,0.0
51722.0,STARLINK-3535,PAYLOAD,2024-08-18 13:44:39,15.08836621,0.0001194,53.2178,359.4923,120.6119,239.4991,7.7955e-05,9.53e-06,0.0,0 STARLINK-3535,1 51722U 22016J   24231.57267510  .00000953  00000-0  77955-4 0  9997,2 51722  53.2178 359.4923 0001194 120.6119 239.4991 15.08836621138723,6917.891,95.438,540.582,538.93,0.0
51722.0,STARLINK-3535,PAYLOAD,2024-08-18 15:20:02,15.08836858,0.0001117,53.2184,359.1969,113.5533,246.5577,4.9865e-05,5.06e-06,0.0,0 STARLINK-3535,1 51722U 22016J   24231.63891653  .00000506  00000-0  49865-4 0  9998,2 51722  53.2184 359.1969 0001117 113.5533 246.5577 15.08836858137666,6917.89,95.438,540.528,538.982,0.0
51722.0,STARLINK-3535,PAYLOAD,2024-08-19 18:21:35,15.08836214,0.0001179,53.2189,354.1434,114.5979,245.5136,2.6756e-05,1.38e-06,0.0,0 STARLINK-3535,1 51722U 22016J   24232.76499996  .00000138  00000-0  26756-4 0  9992,2 51722  53.2189 354.1434 0001179 114.5979 245.5136 15.08836214138900,6917.892,95.438,540.573,538.941,0.0
51722.0,STARLINK-3535,PAYLOAD,2024-08-20 00:43:08,15.08943198,8.81e-05,53.2197,352.9621,138.4207,221.6853,-0.0011933,-0.00019282,0.0,0 STARLINK-3535,1 51722U 22016J   24233.02995653 -.00019282  00000-0 -11933-2 0  9994,2 51722  53.2197 352.9621 0000881 138.4207 221.6853 15.08943198138946,6917.565,95.431,540.039,538.821,0.0
51722.0,STARLINK-3535,PAYLOAD,2024-08-20 13:26:13,15.08831495,0.0001452,53.2199,350.5842,111.4634,248.6513,9.8876e-05,1.286e-05,0.0,0 STARLINK-3535,1 51722U 22016J   24233.55987979  .00001286  00000-0  98876-4 0  9990,2 51722  53.2199 350.5842 0001452 111.4634 248.6513 15.08831495139025,6917.906,95.438,540.776,538.767,0.0
51722.0,STARLINK-3535,PAYLOAD,2024-08-21 14:52:24,15.08842982,0.0001378,53.2169,345.821,79.6299,280.4849,-5.7129e-05,-1.197e-05,0.0,0 STARLINK-3535,1 51722U 22016J   24234.61972707 -.00001197  00000-0 -57129-4 0  9990,2 51722  53.2169 345.8210 0001378  79.6299 280.4849 15.08842982138115,6917.871,95.437,540.69,538.783,0.0
